{
  "norad_id": 65509,
  "name": "STARLINK-35168",
  "history": [
    {
      "epoch": "2026-03-28T12:37:46.264224Z",
      "apogee_km": 475.98920595385607,
      "perigee_km": 474.3826499930801,
      "latitude_deg": 9.945274938539402e-06,
      "longitude_deg": 168.14002816198177,
      "height_km": 475.98039543580313,
      "semi_major_axis_km": 6853.322927973468,
      "eccentricity": 0.00011721,
      "inclination_deg": 53.1592,
      "raan_deg": 183.5282,
      "arg_perigee_deg": 82.5846,
      "mean_anomaly_deg": 277.5288,
      "mean_motion_rev_day": 15.3020976
    }
  ]
}